ORBCOMM FM115           
1 41186U 15081H   24187.85845174  .00001034  00000+0  24452-3 0  9996
2 41186  46.9980 244.8079 0001778 277.6877  82.3807 14.60860655457105
ORBCOMM FM108           
1 41187U 15081J   24187.79069231  .00001624  00000+0  39717-3 0  9997
2 41187  47.0059 301.2163 0002351 187.2352 172.8499 14.56702452456262
ORBCOMM FM117           
1 41188U 15081K   24187.75648944  .00001641  00000+0  40095-3 0  9998
2 41188  47.0020 300.2515 0003172 192.5198 167.5608 14.56704038456300
ORBCOMM FM116           
1 41189U 15081L   24188.01985085  .00001414  00000+0  35061-3 0  9994
2 41189  47.0035  28.8301 0002492 254.0339 106.0271 14.56715208455223
